HIMAWARI-8              
1 40267U 14060A   24048.77584483 -.00000282  00000+0  00000+0 0  9995
2 40267   0.0258 184.4478 0001392 145.4900 237.2318  1.00270452 34330
